NORAD_CAT_ID,OBJECT_NAME,OBJECT_TYPE,EPOCH,MEAN_MOTION,ECCENTRICITY,INCLINATION,RA_OF_ASC_NODE,ARG_OF_PERICENTER,MEAN_ANOMALY,BSTAR,MEAN_MOTION_DOT,MEAN_MOTION_DDOT,TLE_LINE0,TLE_LINE1,TLE_LINE2,SEMIMAJOR_AXIS,PERIOD,APOGEE,PERIGEE,DECAYED
53980.0,STARLINK-5133,PAYLOAD,2022-12-05 17:46:03,15.08840638,0.000184,53.2188,160.782,50.6516,309.4639,8.9879e-05,1.143e-05,0.0,0 STARLINK-5133,1 53980U 22125S   22339.74031621  .00001143  00000-0  89879-4 0  9994,2 53980  53.2188 160.7820 0001840  50.6516 309.4639 15.08840638  9820,6917.878000000002,95.438,541.016,538.471,0.0
53980.0,STARLINK-5133,PAYLOAD,2022-12-05 19:21:26,15.0883813,0.0001902,53.2189,160.4832,47.4354,312.6799,5.2425e-05,5.46e-06,0.0,0 STARLINK-5133,1 53980U 22125S   22339.80655886  .00000546  00000-0  52425-4 0  9999,2 53980  53.2189 160.4832 0001902  47.4354 312.6799 15.08838130  9764,6917.886,95.438,541.067,538.435,0.0
53980.0,STARLINK-5133,PAYLOAD,2022-12-05 22:32:13,15.08833219,0.0001846,53.2189,159.8902,49.8638,310.2516,2.103e-05,4.7e-07,0.0,0 STARLINK-5133,1 53980U 22125S   22339.93904309  .00000047  00000-0  21030-4 0  9994,2 53980  53.2189 159.8902 0001846  49.8638 310.2516 15.08833219  9856,6917.901,95.438,541.043,538.489,0.0
53980.0,STARLINK-5133,PAYLOAD,2022-12-06 12:50:41,15.08834594,0.0001856,53.2188,157.2139,50.5059,309.6097,-4.0909e-06,-3.53e-06,0.0,0 STARLINK-5133,1 53980U 22125S   22340.53520597 -.00000353  00000-0 -40909-5 0  9994,2 53980  53.2188 157.2139 0001856  50.5059 309.6097 15.08834594  9871,6917.897,95.438,541.0459999999998,538.4780000000002,0.0
53980.0,STARLINK-5133,PAYLOAD,2022-12-06 19:12:14,15.08836935,0.0001863,53.219,156.0249,53.4378,306.6785,1.9312e-05,1.9e-07,0.0,0 STARLINK-5133,1 53980U 22125S   22340.80016462  .00000019  00000-0  19312-4 0  9995,2 53980  53.2190 156.0249 0001863  53.4378 306.6785 15.08836935  9914,6917.89,95.438,541.044,538.466,0.0
53980.0,STARLINK-5133,PAYLOAD,2022-12-07 11:06:05,15.08839546,0.0001909,53.2188,153.0509,51.4053,308.711,2.285900000000001e-05,7.6e-07,0.0,0 STARLINK-5133,1 53980U 22125S   22341.46256389  .00000076  00000-0  22859-4 0  9995,2 53980  53.2188 153.0509 0001909  51.4053 308.7110 15.08839546 10082,6917.882,95.438,541.067,538.4259999999998,0.0
53980.0,STARLINK-5133,PAYLOAD,2022-12-07 20:38:23,15.08847356,0.0001913,53.2189,151.2669,50.1931,309.9229,1.2775e-05,-8.5e-07,0.0,0 STARLINK-5133,1 53980U 22125S   22341.85999969 -.00000085  00000-0  12775-4 0  9993,2 53980  53.2189 151.2669 0001913  50.1931 309.9229 15.08847356 10077,6917.858,95.437,541.0459999999998,538.4,0.0
53980.0,STARLINK-5133,PAYLOAD,2022-12-08 12:32:15,15.08845994,0.000184,53.2185,148.293,53.2483,306.8678,0.00017612,2.516e-05,0.0,0 STARLINK-5133,1 53980U 22125S   22342.52239678  .00002516  00000-0  17612-3 0  9996,2 53980  53.2185 148.2930 0001840  53.2483 306.8678 15.08845994 10176,6917.861999999999,95.437,541.0,538.4540000000002,0.0
53980.0,STARLINK-5133,PAYLOAD,2022-12-08 17:18:24,15.08848192,0.000185,53.2185,147.4009,53.6025,306.5137,0.0001881,2.707e-05,0.0,0 STARLINK-5133,1 53980U 22125S   22342.72111475  .00002707  00000-0  18810-3 0  9995,2 53980  53.2185 147.4009 0001850  53.6025 306.5137 15.08848192 10205,6917.855,95.437,541.0,538.441,0.0
53980.0,STARLINK-5133,PAYLOAD,2022-12-09 04:26:05,15.08856636,0.0001788,53.2189,145.322,40.1737,319.9387,0.00015293,2.148e-05,0.0,0 STARLINK-5133,1 53980U 22125S   22343.18478669  .00002148  00000-0  15293-3 0  9998,2 53980  53.2189 145.3220 0001788  40.1737 319.9387 15.08856636 10276,6917.83,95.437,540.931,538.4580000000002,0.0
53980.0,STARLINK-5133,PAYLOAD,2022-12-09 20:19:58,15.08834985,0.000144,53.2201,142.3472,45.1249,314.986,-7.9651e-06,-4.15e-06,0.0,0 STARLINK-5133,1 53980U 22125S   22343.84720313 -.00000415  00000-0 -79651-5 0  9994,2 53980  53.2201 142.3472 0001440  45.1249 314.9860 15.08834985 10448,6917.896,95.438,540.757,538.765,0.0
53980.0,STARLINK-5133,PAYLOAD,2022-12-10 10:38:26,15.08810045,0.0001415,53.2201,139.6724,318.2474,41.841,0.00032627,4.904e-05,0.0,0 STARLINK-5133,1 53980U 22125S   22344.44336652  .00004904  00000-0  32627-3 0  9995,2 53980  53.2201 139.6724 0001415 318.2474  41.8410 15.08810045 10531,6917.972,95.439,540.816,538.8580000000002,0.0
53980.0,STARLINK-5133,PAYLOAD,2022-12-10 13:49:12,15.08832233,0.0001495,53.2193,139.0786,329.2324,30.858,4.6229e-05,4.48e-06,0.0,0 STARLINK-5133,1 53980U 22125S   22344.57583960  .00000448  00000-0  46229-4 0  9998,2 53980  53.2193 139.0786 0001495 329.2324  30.8580 15.08832233 10480,6917.904,95.438,540.803,538.735,0.0
53980.0,STARLINK-5133,PAYLOAD,2022-12-10 16:59:58,15.08841025,0.000177,53.2198,138.4829,33.3618,326.7485,-1.8254e-05,-5.79e-06,0.0,0 STARLINK-5133,1 53980U 22125S   22344.70832100 -.00000579  00000-0 -18254-4 0  9990,2 53980  53.2198 138.4829 0001770  33.3618 326.7485 15.08841025 10571,6917.877,95.437,540.967,538.518,0.0
53980.0,STARLINK-5133,PAYLOAD,2022-12-11 10:29:12,15.08841497,0.0001793,53.219,135.2104,49.7882,310.3267,0.00019941,2.887e-05,0.0,0 STARLINK-5133,1 53980U 22125S   22345.43695596  .00002887  00000-0  19941-3 0  9992,2 53980  53.2190 135.2104 0001793  49.7882 310.3267 15.08841497 10618,6917.876,95.437,540.981,538.5,0.0
53980.0,STARLINK-5133,PAYLOAD,2022-12-11 16:50:45,15.08841363,0.0001829,53.218,134.0239,39.6822,320.4304,0.00022851,3.351e-05,0.0,0 STARLINK-5133,1 53980U 22125S   22345.70192065  .00003351  00000-0  22851-3 0  9996,2 53980  53.2180 134.0239 0001829  39.6822 320.4304 15.08841363 10655,6917.876,95.437,541.007,538.476,0.0
53980.0,STARLINK-5133,PAYLOAD,2022-12-11 21:36:55,15.08839821,0.0001976,53.2177,133.1323,35.5468,324.5656,0.00017909,2.563e-05,0.0,0 STARLINK-5133,1 53980U 22125S   22345.90064186  .00002563  00000-0  17909-3 0  9992,2 53980  53.2177 133.1323 0001976  35.5468 324.5656 15.08839821 10751,6917.880999999999,95.438,541.113,538.379,0.0
53980.0,STARLINK-5133,PAYLOAD,2022-12-12 10:20:00,15.08845796,0.0001696999999999,53.2185,130.7491,48.7662,311.3476,0.00013365,1.84e-05,0.0,0 STARLINK-5133,1 53980U 22125S   22346.43055817  .00001840  00000-0  13365-3 0  9991,2 53980  53.2185 130.7491 0001697  48.7662 311.3476 15.08845796 10764,6917.863,95.437,540.9019999999998,538.554,0.0
53980.0,STARLINK-5133,PAYLOAD,2022-12-12 19:52:19,15.08839678,0.000179,53.2187,128.9658,45.9402,314.1737,3.2336e-05,2.27e-06,0.0,0 STARLINK-5133,1 53980U 22125S   22346.82800142  .00000227  00000-0  32336-4 0  9991,2 53980  53.2187 128.9658 0001790  45.9402 314.1737 15.08839678 10825,6917.880999999999,95.438,540.985,538.508,0.0
53980.0,STARLINK-5133,PAYLOAD,2022-12-13 02:13:51,15.08840064,0.0001888,53.2179,127.7803,39.3414,320.7715,3.1694e-05,2.16e-06,0.0,0 STARLINK-5133,1 53980U 22125S   22347.09296098  .00000216  00000-0  31694-4 0  9994,2 53980  53.2179 127.7803 0001888  39.3414 320.7715 15.08840064 10935,6917.88,95.438,541.0509999999998,538.439,0.0
53980.0,STARLINK-5133,PAYLOAD,2022-12-13 10:10:47,15.088455499999998,0.0001832,53.2188,126.2913,38.9777,321.1347,-4.9335e-05,-1.073e-05,0.0,0 STARLINK-5133,1 53980U 22125S   22347.42415750 -.00001073  00000-0 -49335-4 0  9994,2 53980  53.2188 126.2913 0001832  38.9777 321.1347 15.08845550 10916,6917.863,95.437,540.996,538.461,0.0
53980.0,STARLINK-5133,PAYLOAD,2022-12-13 16:32:20,15.08836175,0.000161,53.2202,125.1009,35.2105,324.8994,-0.00010005,-1.88e-05,0.0,0 STARLINK-5133,1 53980U 22125S   22347.68912155 -.00001880  00000-0 -10005-3 0  9990,2 53980  53.2202 125.1009 0001610  35.2105 324.8994 15.08836175 10951,6917.892,95.438,540.871,538.643,0.0
53980.0,STARLINK-5133,PAYLOAD,2022-12-14 11:36:57,15.0883878,0.0001852,53.2182,121.5309,53.0604,307.0558,0.00016472,2.334e-05,0.0,0 STARLINK-5133,1 53980U 22125S   22348.48400066  .00002334  00000-0  16472-3 0  9999,2 53980  53.2182 121.5309 0001852  53.0604 307.0558 15.08838780 11078,6917.884,95.438,541.03,538.4680000000002,0.0
53980.0,STARLINK-5133,PAYLOAD,2022-12-14 14:47:43,15.08839328,0.0001898,53.2191,120.9357,38.7335,321.3793,7.3982e-05,8.89e-06,0.0,0 STARLINK-5133,1 53980U 22125S   22348.61648058  .00000889  00000-0  73982-4 0  9992,2 53980  53.2191 120.9357 0001898  38.7335 321.3793 15.08839328 11164,6917.882,95.438,541.06,538.434,0.0
53980.0,STARLINK-5133,PAYLOAD,2022-12-14 16:23:07,15.08836379,0.0001909,53.2187,120.6381,45.5749,314.5399,7.6888e-05,9.36e-06,0.0,0 STARLINK-5133,1 53980U 22125S   22348.68272251  .00000936  00000-0  76888-4 0  9998,2 53980  53.2187 120.6381 0001909  45.5749 314.5399 15.08836379 11104,6917.891,95.438,541.077,538.436,0.0
53980.0,STARLINK-5133,PAYLOAD,2022-12-15 13:03:08,15.08840333,0.0001941,53.2198,116.7747,44.4831,315.6317,7.0442e-05,8.33e-06,0.0,0 STARLINK-5133,1 53980U 22125S   22349.54384427  .00000833  00000-0  70442-4 0  9999,2 53980  53.2198 116.7747 0001941  44.4831 315.6317 15.08840333 11235,6917.879,95.438,541.087,538.4019999999998,0.0
53980.0,STARLINK-5133,PAYLOAD,2022-12-15 17:49:17,15.0884134,0.0001976,53.2189,115.8822,50.2172,309.8994,0.000149,2.084e-05,0.0,0 STARLINK-5133,1 53980U 22125S   22349.74256296  .00002084  00000-0  14900-3 0  9999,2 53980  53.2189 115.8822 0001976  50.2172 309.8994 15.08841340 11336,6917.876,95.437,541.1080000000002,538.374,0.0
53980.0,STARLINK-5133,PAYLOAD,2022-12-16 08:07:46,15.08834386,0.0002361,53.2162,113.2072,50.0158,310.1042,-1.5083e-05,-5.28e-06,0.0,0 STARLINK-5133,1 53980U 22125S   22350.33872972 -.00000528  00000-0 -15083-4 0  9998,2 53980  53.2162 113.2072 0002361  50.0158 310.1042 15.08834386 11428,6917.898,95.438,541.396,538.129,0.0
53980.0,STARLINK-5133,PAYLOAD,2022-12-16 14:29:19,15.08828826,0.0001949,53.2181,112.0171,42.6649,317.4495,-7.5215e-05,-1.485e-05,0.0,0 STARLINK-5133,1 53980U 22125S   22350.60369296 -.00001485  00000-0 -75215-4 0  9994,2 53980  53.2181 112.0171 0001949  42.6649 317.4495 15.08828826 11399,6917.915,95.438,541.128,538.431,0.0
